{"type": "FeatureCollection", "features": [ {"type": "Feature", "properties": {"norad_id": 29878, "name": "FENGYUN 1C DEB", "group": "fengyun-1c-debris", "lat": 13.597450654818493, "lon": 162.93383985296853, "alt_km": 546.808341578414, "timestamp": "2025-12-18T15:47:11.495079+00:00", "meta": {"OBJECT_NAME": "FENGYUN 1C DEB", "OBJECT_ID": "1999-025FY", "EPOCH": "2025-12-17T22:14:35.943360", "MEAN_MOTION": 15.10983526, "ECCENTRICITY": 0.0025423, "INCLINATION": 96.9471, "RA_OF_ASC_NODE": 163.9598, "ARG_OF_PERICENTER": 153.5966, "MEAN_ANOMALY": 206.6567, "EPHEMERIS_TYPE": 0, "CLASSIFICATION_TYPE": "U", "NORAD_CAT_ID": 29878, "ELEMENT_SET_NO": 999, "REV_AT_EPOCH": 98726, "BSTAR": 0.0056760778, "MEAN_MOTION_DOT": 0.00096586, "MEAN_MOTION_DDOT": 0}, "tle": {"line1": "1 29878U 99025FY  25351.92680490  .00096586  00000+0  56761-2 0  9993", "line2": "2 29878  96.9471 163.9598 0025423 153.5966 206.6567 15.10983526987268"}}, "geometry": {"type": "Point", "coordinates": [162.93383985296853, 13.597450654818493]}}, {"type": "Feature", "properties": {"norad_id": 29880, "name": "FENGYUN 1C DEB", "group": "fengyun-1c-debris", "lat": -71.89985798154163, "lon": -63.30084741693816, "alt_km": 1079.3731757013675, "timestamp": "2025-12-18T15:47:11.495089+00:00", "meta": {"OBJECT_NAME": "FENGYUN 1C DEB", "OBJECT_ID": "1999-025GA", "EPOCH": "2025-12-18T06:31:14.903328", "MEAN_MOTION": 13.93929617, "ECCENTRICITY": 0.02320445, "INCLINATION": 98.1952, "RA_OF_ASC_NODE": 270.1956, "ARG_OF_PERICENTER": 86.0309, "MEAN_ANOMALY": 64.8938, "EPHEMERIS_TYPE": 0, "CLASSIFICATION_TYPE": "U", "NORAD_CAT_ID": 29880, "ELEMENT_SET_NO": 999, "REV_AT_EPOCH": 95639, "BSTAR": 0.00086165585, "MEAN_MOTION_DOT": 1.388e-05, "MEAN_MOTION_DDOT": 0}, "tle": {"line1": "1 29880U 99025GA  25352.27170027  .00001388  00000+0  86166-3 0  9994", "line2": "2 29880  98.1952 270.1956 0232044  86.0309  64.8938 13.93929617956394"}}, "geometry": {"type": "Point", "coordinates": [-63.30084741693816, -71.89985798154163]}}, {"type": "Feature", "properties": {"norad_id": 29881, "name": "FENGYUN 1C DEB", "group": "fengyun-1c-debris", "lat": 8.7485389382877, "lon": -37.15444577556222, "alt_km": 888.1170819625822, "timestamp": "2025-12-18T15:47:11.495099+00:00", "meta": {"OBJECT_NAME": "FENGYUN 1C DEB", "OBJECT_ID": "1999-025GB", "EPOCH": "2025-12-17T10:26:10.480128", "MEAN_MOTION": 13.59636325, "ECCENTRICITY": 0.02928429, "INCLINATION": 98.7225, "RA_OF_ASC_NODE": 323.1083, "ARG_OF_PERICENTER": 59.5052, "MEAN_ANOMALY": 89.2107, "EPHEMERIS_TYPE": 0, "CLASSIFICATION_TYPE": "U", "NORAD_CAT_ID": 29881, "ELEMENT_SET_NO": 999, "REV_AT_EPOCH": 93298, "BSTAR": 0.0021413089, "MEAN_MOTION_DOT": 2.071e-05, "MEAN_MOTION_DDOT": 0}, "tle": {"line1": "1 29881U 99025GB  25351.43484352  .00002071  00000+0  21413-2 0  9994", "line2": "2 29881  98.7225 323.1083 0292842  59.5052  89.2107 13.59636325932987"}}, "geometry": {"type": "Point", "coordinates": [-37.15444577556222, 8.7485389382877]}}, {"type": "Feature", "properties": {"norad_id": 29884, "name": "FENGYUN 1C DEB", "group": "fengyun-1c-debris", "lat": -69.04736870684042, "lon": -179.43517884251858, "alt_km": 785.4485261031032, "timestamp": "2025-12-18T15:47:11.495110+00:00", "meta": {"OBJECT_NAME": "FENGYUN 1C DEB", "OBJECT_ID": "1999-025GE", "EPOCH": "2025-12-18T01:32:24.069408", "MEAN_MOTION": 14.40318144, "ECCENTRICITY": 0.00444837, "INCLINATION": 99.6028, "RA_OF_ASC_NODE": 26.1393, "ARG_OF_PERICENTER": 121.8598, "MEAN_ANOMALY": 292.7969, "EPHEMERIS_TYPE": 0, "CLASSIFICATION_TYPE": "U", "NORAD_CAT_ID": 29884, "ELEMENT_SET_NO": 999, "REV_AT_EPOCH": 98626, "BSTAR": 0.00050159927, "MEAN_MOTION_DOT": 1.555e-05, "MEAN_MOTION_DDOT": 0}, "tle": {"line1": "1 29884U 99025GE  25352.06416747  .00001555  00000+0  50160-3 0  9998", "line2": "2 29884  99.6028  26.1393 0044483 121.8598 292.7969 14.40318144986263"}}, "geometry": {"type": "Point", "coordinates": [-179.43517884251858, -69.04736870684042]}}, {"type": "Feature", "properties": {"norad_id": 29885, "name": "FENGYUN 1C DEB", "group": "fengyun-1c-debris", "lat": -78.15639505516677, "lon": 62.808568215577985, "alt_km": 888.9053462730753, "timestamp": "2025-12-18T15:47:11.495120+00:00", "meta": {"OBJECT_NAME": "FENGYUN 1C DEB", "OBJECT_ID": "1999-025GF", "EPOCH": "2025-12-18T02:44:14.948160", "MEAN_MOTION": 14.13583938, "ECCENTRICITY": 0.0118684, "INCLINATION": 98.356, "RA_OF_ASC_NODE": 286.797, "ARG_OF_PERICENTER": 148.8284, "MEAN_ANOMALY": 226.1689, "EPHEMERIS_TYPE": 0, "CLASSIFICATION_TYPE": "U", "NORAD_CAT_ID": 29885, "ELEMENT_SET_NO": 999, "REV_AT_EPOCH": 97533, "BSTAR": 0.0001060989, "MEAN_MOTION_DOT": 1.75e-06, "MEAN_MOTION_DDOT": 0}, "tle": {"line1": "1 29885U 99025GF  25352.11406190  .00000175  00000+0  10610-3 0  9999", "line2": "2 29885  98.3560 286.7970 0118684 148.8284 226.1689 14.13583938975333"}}, "geometry": {"type": "Point", "coordinates": [62.808568215577985, -78.15639505516677]}}, {"type": "Feature", "properties": {"norad_id": 29887, "name": "FENGYUN 1C DEB", "group": "fengyun-1c-debris", "lat": 72.73877659921982, "lon": -76.0837692603685, "alt_km": 880.6240512077293, "timestamp": "2025-12-18T15:47:11.495130+00:00", "meta": {"OBJECT_NAME": "FENGYUN 1C DEB", "OBJECT_ID": "1999-025GH", "EPOCH": "2025-12-18T05:31:48.084960", "MEAN_MOTION": 14.33733309, "ECCENTRICITY": 0.02866248, "INCLINATION": 98.7181, "RA_OF_ASC_NODE": 73.8925, "ARG_OF_PERICENTER": 342.9226, "MEAN_ANOMALY": 74.7204, "EPHEMERIS_TYPE": 0, "CLASSIFICATION_TYPE": "U", "NORAD_CAT_ID": 29887, "ELEMENT_SET_NO": 999, "REV_AT_EPOCH": 98053, "BSTAR": 0.00043068024, "MEAN_MOTION_DOT": 1.838e-05, "MEAN_MOTION_DDOT": 0}, "tle": {"line1": "1 29887U 99025GH  25352.23041765  .00001838  00000+0  43068-3 0  9997", "line2": "2 29887  98.7181  73.8925 0286624 342.9226  74.7204 14.33733309980535"}}, "geometry": {"type": "Point", "coordinates": [-76.0837692603685, 72.73877659921982]}}, {"type": "Feature", "properties": {"norad_id": 29888, "name": "FENGYUN 1C DEB", "group": "fengyun-1c-debris", "lat": -62.37162271949881, "lon": -12.417112533650547, "alt_km": 942.1805617268674, "timestamp": "2025-12-18T15:47:11.495140+00:00", "meta": {"OBJECT_NAME": "FENGYUN 1C DEB", "OBJECT_ID": "1999-025GJ", "EPOCH": "2025-12-18T06:10:32.799648", "MEAN_MOTION": 14.19868038, "ECCENTRICITY": 0.02748719, "INCLINATION": 99.1913, "RA_OF_ASC_NODE": 185.1859, "ARG_OF_PERICENTER": 9.6959, "MEAN_ANOMALY": 350.9371, "EPHEMERIS_TYPE": 0, "CLASSIFICATION_TYPE": "U", "NORAD_CAT_ID": 29888, "ELEMENT_SET_NO": 999, "REV_AT_EPOCH": 97582, "BSTAR": 0.00028708085, "MEAN_MOTION_DOT": 8.35e-06, "MEAN_MOTION_DDOT": 0}, "tle": {"line1": "1 29888U 99025GJ  25352.25732407  .00000835  00000+0  28708-3 0  9990", "line2": "2 29888  99.1913 185.1859 0274871   9.6959 350.9371 14.19868038975820"}}, "geometry": {"type": "Point", "coordinates": [-12.417112533650547, -62.37162271949881]}}, {"type": "Feature", "properties": {"norad_id": 29889, "name": "FENGYUN 1C DEB", "group": "fengyun-1c-debris", "lat": -14.288340977688772, "lon": -72.03524325082293, "alt_km": 962.1834845970916, "timestamp": "2025-12-18T15:47:11.495151+00:00", "meta": {"OBJECT_NAME": "FENGYUN 1C DEB", "OBJECT_ID": "1999-025GK", "EPOCH": "2025-12-18T06:40:18.648768", "MEAN_MOTION": 14.13518005, "ECCENTRICITY": 0.01542571, "INCLINATION": 99.4772, "RA_OF_ASC_NODE": 110.0007, "ARG_OF_PERICENTER": 23.7045, "MEAN_ANOMALY": 38.9062, "EPHEMERIS_TYPE": 0, "CLASSIFICATION_TYPE": "U", "NORAD_CAT_ID": 29889, "ELEMENT_SET_NO": 999, "REV_AT_EPOCH": 97397, "BSTAR": 0.00022368811, "MEAN_MOTION_DOT": 4.23e-06, "MEAN_MOTION_DDOT": 0}, "tle": {"line1": "1 29889U 99025GK  25352.27799362  .00000423  00000+0  22369-3 0  9996", "line2": "2 29889  99.4772 110.0007 0154257  23.7045  38.9062 14.13518005973971"}}, "geometry": {"type": "Point", "coordinates": [-72.03524325082293, -14.288340977688772]}}, {"type": "Feature", "properties": {"norad_id": 29890, "name": "FENGYUN 1C DEB", "group": "fengyun-1c-debris", "lat": -76.51721317887431, "lon": -109.48583391440071, "alt_km": 831.9569223162362, "timestamp": "2025-12-18T15:47:11.495162+00:00", "meta": {"OBJECT_NAME": "FENGYUN 1C DEB", "OBJECT_ID": "1999-025GL", "EPOCH": "2025-12-18T06:07:47.752320", "MEAN_MOTION": 14.23057603, "ECCENTRICITY": 0.001458, "INCLINATION": 99.4681, "RA_OF_ASC_NODE": 114.1899, "ARG_OF_PERICENTER": 58.4175, "MEAN_ANOMALY": 301.8422, "EPHEMERIS_TYPE": 0, "CLASSIFICATION_TYPE": "U", "NORAD_CAT_ID": 29890, "ELEMENT_SET_NO": 999, "REV_AT_EPOCH": 97529, "BSTAR": 0.00068504674, "MEAN_MOTION_DOT": 1.496e-05, "MEAN_MOTION_DDOT": 0}, "tle": {"line1": "1 29890U 99025GL  25352.25541380  .00001496  00000+0  68505-3 0  9994", "line2": "2 29890  99.4681 114.1899 0014580  58.4175 301.8422 14.23057603975291"}}, "geometry": {"type": "Point", "coordinates": [-109.48583391440071, -76.51721317887431]}}, {"type": "Feature", "properties": {"norad_id": 29891, "name": "FENGYUN 1C DEB", "group": "fengyun-1c-debris", "lat": 53.774671499291074, "lon": -17.590594529051526, "alt_km": 932.562176570993, "timestamp": "2025-12-18T15:47:11.495173+00:00", "meta": {"OBJECT_NAME": "FENGYUN 1C DEB", "OBJECT_ID": "1999-025GM", "EPOCH": "2025-12-17T22:39:25.685856", "MEAN_MOTION": 14.00004648, "ECCENTRICITY": 0.00611139, "INCLINATION": 98.7264, "RA_OF_ASC_NODE": 353.8309, "ARG_OF_PERICENTER": 245.6895, "MEAN_ANOMALY": 173.7675, "EPHEMERIS_TYPE": 0, "CLASSIFICATION_TYPE": "U", "NORAD_CAT_ID": 29891, "ELEMENT_SET_NO": 999, "REV_AT_EPOCH": 96561, "BSTAR": 0.00047288644, "MEAN_MOTION_DOT": 6.65e-06, "MEAN_MOTION_DDOT": 0}, "tle": {"line1": "1 29891U 99025GM  25351.94404729  .00000665  00000+0  47289-3 0  9998", "line2": "2 29891  98.7264 353.8309 0061113 245.6895 173.7675 14.00004648965619"}}, "geometry": {"type": "Point", "coordinates": [-17.590594529051526, 53.774671499291074]}}]}